[{"OBJECT_NAME":"STARLINK-5383","OBJECT_ID":"2022-177H","EPOCH":"2026-03-09T05:03:48.190752","MEAN_MOTION":15.02531322,"ECCENTRICITY":0.00012188,"INCLINATION":43.0016,"RA_OF_ASC_NODE":135.8997,"ARG_OF_PERICENTER":263.6559,"MEAN_ANOMALY":96.4144,"EPHEMERIS_TYPE":0,"CLASSIFICATION_TYPE":"U","NORAD_CAT_ID":54827,"ELEMENT_SET_NO":999,"REV_AT_EPOCH":17689,"BSTAR":-3.668191e-6,"MEAN_MOTION_DOT":-2.53e-6,"MEAN_MOTION_DDOT":0},{"OBJECT_NAME":"IMS-1","OBJECT_ID":"2008-021D","EPOCH":"2026-03-09T22:27:26.707392","MEAN_MOTION":15.03517095,"ECCENTRICITY":0.00068607,"INCLINATION":97.9418,"RA_OF_ASC_NODE":52.6663,"ARG_OF_PERICENTER":75.5168,"MEAN_ANOMALY":284.6817,"EPHEMERIS_TYPE":0,"CLASSIFICATION_TYPE":"U","NORAD_CAT_ID":32786,"ELEMENT_SET_NO":999,"REV_AT_EPOCH":96828,"BSTAR":0.00046947389,"MEAN_MOTION_DOT":6.344e-5,"MEAN_MOTION_DDOT":0}]
